{"type": "FeatureCollection", "features": [ {"type": "Feature", "properties": {"norad_id": 33905, "name": "COSMOS 2251 DEB", "group": "cosmos-2251-debris", "lat": 22.885944662917012, "lon": 129.25472167251834, "alt_km": 745.5996688009063, "timestamp": "2025-12-12T22:42:12.938547+00:00", "meta": {"OBJECT_NAME": "COSMOS 2251 DEB", "OBJECT_ID": "1993-036DJ", "EPOCH": "2025-12-12T00:31:36.547392", "MEAN_MOTION": 14.35382416, "ECCENTRICITY": 0.0058938, "INCLINATION": 73.8875, "RA_OF_ASC_NODE": 317.9728, "ARG_OF_PERICENTER": 207.6253, "MEAN_ANOMALY": 215.9729, "EPHEMERIS_TYPE": 0, "CLASSIFICATION_TYPE": "U", "NORAD_CAT_ID": 33905, "ELEMENT_SET_NO": 999, "REV_AT_EPOCH": 87677, "BSTAR": 0.001062, "MEAN_MOTION_DOT": 3.083e-05, "MEAN_MOTION_DDOT": 0}, "tle": {"line1": "1 33905U 93036DJ  25346.02195078  .00003083  00000+0  10620-2 0  9997", "line2": "2 33905  73.8875 317.9728 0058938 207.6253 215.9729 14.35382416876772"}}, "geometry": {"type": "Point", "coordinates": [129.25472167251834, 22.885944662917012]}}, {"type": "Feature", "properties": {"norad_id": 33906, "name": "COSMOS 2251 DEB", "group": "cosmos-2251-debris", "lat": 54.41328850372163, "lon": -15.328235299463644, "alt_km": 687.0527468583996, "timestamp": "2025-12-12T22:42:12.938557+00:00", "meta": {"OBJECT_NAME": "COSMOS 2251 DEB", "OBJECT_ID": "1993-036DK", "EPOCH": "2025-12-11T23:37:27.757920", "MEAN_MOTION": 14.57070035, "ECCENTRICITY": 0.0036626, "INCLINATION": 74.0308, "RA_OF_ASC_NODE": 322.9093, "ARG_OF_PERICENTER": 352.4042, "MEAN_ANOMALY": 62.8505, "EPHEMERIS_TYPE": 0, "CLASSIFICATION_TYPE": "U", "NORAD_CAT_ID": 33906, "ELEMENT_SET_NO": 999, "REV_AT_EPOCH": 87997, "BSTAR": 0.0031623, "MEAN_MOTION_DOT": 0.00014371, "MEAN_MOTION_DDOT": 0}, "tle": {"line1": "1 33906U 93036DK  25345.98434905  .00014371  00000+0  31623-2 0  9995", "line2": "2 33906  74.0308 322.9093 0036626 352.4042  62.8505 14.57070035879974"}}, "geometry": {"type": "Point", "coordinates": [-15.328235299463644, 54.41328850372163]}}, {"type": "Feature", "properties": {"norad_id": 33907, "name": "COSMOS 2251 DEB", "group": "cosmos-2251-debris", "lat": 8.636961059328927, "lon": 35.76383037621651, "alt_km": 776.0973917227766, "timestamp": "2025-12-12T22:42:12.938568+00:00", "meta": {"OBJECT_NAME": "COSMOS 2251 DEB", "OBJECT_ID": "1993-036DL", "EPOCH": "2025-12-12T06:12:52.884288", "MEAN_MOTION": 14.30499994, "ECCENTRICITY": 0.0112138, "INCLINATION": 74.0705, "RA_OF_ASC_NODE": 34.5247, "ARG_OF_PERICENTER": 90.1447, "MEAN_ANOMALY": 343.5147, "EPHEMERIS_TYPE": 0, "CLASSIFICATION_TYPE": "U", "NORAD_CAT_ID": 33907, "ELEMENT_SET_NO": 999, "REV_AT_EPOCH": 86573, "BSTAR": 0.0026638231, "MEAN_MOTION_DOT": 7.415e-05, "MEAN_MOTION_DDOT": 0}, "tle": {"line1": "1 33907U 93036DL  25346.25894542  .00007415  00000+0  26638-2 0  9995", "line2": "2 33907  74.0705  34.5247 0112138  90.1447 343.5147 14.30499994865731"}}, "geometry": {"type": "Point", "coordinates": [35.76383037621651, 8.636961059328927]}}, {"type": "Feature", "properties": {"norad_id": 33908, "name": "COSMOS 2251 DEB", "group": "cosmos-2251-debris", "lat": 22.971706425765543, "lon": -147.53859351228047, "alt_km": 1013.7797073466545, "timestamp": "2025-12-12T22:42:12.938578+00:00", "meta": {"OBJECT_NAME": "COSMOS 2251 DEB", "OBJECT_ID": "1993-036DM", "EPOCH": "2025-12-12T00:24:27.544608", "MEAN_MOTION": 14.07331491, "ECCENTRICITY": 0.02231321, "INCLINATION": 73.8379, "RA_OF_ASC_NODE": 207.0482, "ARG_OF_PERICENTER": 230.7133, "MEAN_ANOMALY": 127.4029, "EPHEMERIS_TYPE": 0, "CLASSIFICATION_TYPE": "U", "NORAD_CAT_ID": 33908, "ELEMENT_SET_NO": 999, "REV_AT_EPOCH": 85463, "BSTAR": 0.0028680564, "MEAN_MOTION_DOT": 6.023e-05, "MEAN_MOTION_DDOT": 0}, "tle": {"line1": "1 33908U 93036DM  25346.01698547  .00006023  00000+0  28681-2 0  9991", "line2": "2 33908  73.8379 207.0482 0223132 230.7133 127.4029 14.07331491854631"}}, "geometry": {"type": "Point", "coordinates": [-147.53859351228047, 22.971706425765543]}}, {"type": "Feature", "properties": {"norad_id": 33911, "name": "COSMOS 2251 DEB", "group": "cosmos-2251-debris", "lat": -21.465213020536638, "lon": -12.107282514529906, "alt_km": 652.2786715953471, "timestamp": "2025-12-12T22:42:12.938588+00:00", "meta": {"OBJECT_NAME": "COSMOS 2251 DEB", "OBJECT_ID": "1993-036DQ", "EPOCH": "2025-12-11T11:44:22.098624", "MEAN_MOTION": 14.74796622, "ECCENTRICITY": 0.00142629, "INCLINATION": 74.0904, "RA_OF_ASC_NODE": 164.2887, "ARG_OF_PERICENTER": 105.3404, "MEAN_ANOMALY": 285.0385, "EPHEMERIS_TYPE": 0, "CLASSIFICATION_TYPE": "U", "NORAD_CAT_ID": 33911, "ELEMENT_SET_NO": 999, "REV_AT_EPOCH": 88626, "BSTAR": 0.0039923309, "MEAN_MOTION_DOT": 0.00026852, "MEAN_MOTION_DDOT": 0}, "tle": {"line1": "1 33911U 93036DQ  25345.48914466  .00026852  00000+0  39923-2 0  9999", "line2": "2 33911  74.0904 164.2887 0014262 105.3404 285.0385 14.74796622886260"}}, "geometry": {"type": "Point", "coordinates": [-12.107282514529906, -21.465213020536638]}}, {"type": "Feature", "properties": {"norad_id": 33912, "name": "COSMOS 2251 DEB", "group": "cosmos-2251-debris", "lat": 65.97768651860765, "lon": -130.69454704434634, "alt_km": 720.4980395816056, "timestamp": "2025-12-12T22:42:12.938598+00:00", "meta": {"OBJECT_NAME": "COSMOS 2251 DEB", "OBJECT_ID": "1993-036DR", "EPOCH": "2025-12-11T23:54:59.626080", "MEAN_MOTION": 14.51887617, "ECCENTRICITY": 0.0011472, "INCLINATION": 74.0336, "RA_OF_ASC_NODE": 191.125, "ARG_OF_PERICENTER": 269.995, "MEAN_ANOMALY": 241.201, "EPHEMERIS_TYPE": 0, "CLASSIFICATION_TYPE": "U", "NORAD_CAT_ID": 33912, "ELEMENT_SET_NO": 999, "REV_AT_EPOCH": 88422, "BSTAR": 0.0010942, "MEAN_MOTION_DOT": 4.389e-05, "MEAN_MOTION_DDOT": 0}, "tle": {"line1": "1 33912U 93036DR  25345.99652345  .00004389  00000+0  10942-2 0  9992", "line2": "2 33912  74.0336 191.1250 0011472 269.9950 241.2010 14.51887617884229"}}, "geometry": {"type": "Point", "coordinates": [-130.69454704434634, 65.97768651860765]}}, {"type": "Feature", "properties": {"norad_id": 33913, "name": "COSMOS 2251 DEB", "group": "cosmos-2251-debris", "lat": 24.296636741863235, "lon": -4.1665518686371525, "alt_km": 752.0658919054958, "timestamp": "2025-12-12T22:42:12.938608+00:00", "meta": {"OBJECT_NAME": "COSMOS 2251 DEB", "OBJECT_ID": "1993-036DS", "EPOCH": "2025-12-11T23:20:27.461184", "MEAN_MOTION": 14.48481085, "ECCENTRICITY": 0.0048161, "INCLINATION": 74.0334, "RA_OF_ASC_NODE": 185.0828, "ARG_OF_PERICENTER": 287.795, "MEAN_ANOMALY": 193.1855, "EPHEMERIS_TYPE": 0, "CLASSIFICATION_TYPE": "U", "NORAD_CAT_ID": 33913, "ELEMENT_SET_NO": 999, "REV_AT_EPOCH": 88446, "BSTAR": 0.00081494, "MEAN_MOTION_DOT": 3.075e-05, "MEAN_MOTION_DDOT": 0}, "tle": {"line1": "1 33913U 93036DS  25345.97254006  .00003075  00000+0  81494-3 0  9995", "line2": "2 33913  74.0334 185.0828 0048161 287.7950 193.1855 14.48481085884467"}}, "geometry": {"type": "Point", "coordinates": [-4.1665518686371525, 24.296636741863235]}}, {"type": "Feature", "properties": {"norad_id": 33914, "name": "COSMOS 2251 DEB", "group": "cosmos-2251-debris", "lat": 57.88962399545755, "lon": 41.78521516319313, "alt_km": 857.7134968934351, "timestamp": "2025-12-12T22:42:12.938618+00:00", "meta": {"OBJECT_NAME": "COSMOS 2251 DEB", "OBJECT_ID": "1993-036DT", "EPOCH": "2025-12-12T03:25:46.704288", "MEAN_MOTION": 13.71984802, "ECCENTRICITY": 0.03012248, "INCLINATION": 74.0915, "RA_OF_ASC_NODE": 16.0785, "ARG_OF_PERICENTER": 119.2639, "MEAN_ANOMALY": 300.321, "EPHEMERIS_TYPE": 0, "CLASSIFICATION_TYPE": "U", "NORAD_CAT_ID": 33914, "ELEMENT_SET_NO": 999, "REV_AT_EPOCH": 84073, "BSTAR": 0.00056313627, "MEAN_MOTION_DOT": 6.87e-06, "MEAN_MOTION_DDOT": 0}, "tle": {"line1": "1 33914U 93036DT  25346.14290167  .00000687  00000+0  56314-3 0  9993", "line2": "2 33914  74.0915  16.0785 0301224 119.2639 300.3210 13.71984802840732"}}, "geometry": {"type": "Point", "coordinates": [41.78521516319313, 57.88962399545755]}}, {"type": "Feature", "properties": {"norad_id": 33915, "name": "COSMOS 2251 DEB", "group": "cosmos-2251-debris", "lat": -51.16099876491349, "lon": -125.45663298668515, "alt_km": 803.4716815641523, "timestamp": "2025-12-12T22:42:12.938628+00:00", "meta": {"OBJECT_NAME": "COSMOS 2251 DEB", "OBJECT_ID": "1993-036DU", "EPOCH": "2025-12-12T05:09:38.203200", "MEAN_MOTION": 14.35082246, "ECCENTRICITY": 0.01044307, "INCLINATION": 74.0444, "RA_OF_ASC_NODE": 35.0686, "ARG_OF_PERICENTER": 127.7692, "MEAN_ANOMALY": 290.2991, "EPHEMERIS_TYPE": 0, "CLASSIFICATION_TYPE": "U", "NORAD_CAT_ID": 33915, "ELEMENT_SET_NO": 999, "REV_AT_EPOCH": 87750, "BSTAR": 0.00062738501, "MEAN_MOTION_DOT": 1.878e-05, "MEAN_MOTION_DDOT": 0}, "tle": {"line1": "1 33915U 93036DU  25346.21502550  .00001878  00000+0  62739-3 0  9995", "line2": "2 33915  74.0444  35.0686 0104430 127.7692 290.2991 14.35082246877504"}}, "geometry": {"type": "Point", "coordinates": [-125.45663298668515, -51.16099876491349]}}, {"type": "Feature", "properties": {"norad_id": 33916, "name": "COSMOS 2251 DEB", "group": "cosmos-2251-debris", "lat": -27.64884777528717, "lon": 31.635755431536055, "alt_km": 1119.9263374958728, "timestamp": "2025-12-12T22:42:12.938638+00:00", "meta": {"OBJECT_NAME": "COSMOS 2251 DEB", "OBJECT_ID": "1993-036DV", "EPOCH": "2025-12-12T07:27:37.497024", "MEAN_MOTION": 13.68613338, "ECCENTRICITY": 0.03253391, "INCLINATION": 74.0528, "RA_OF_ASC_NODE": 41.2934, "ARG_OF_PERICENTER": 213.5255, "MEAN_ANOMALY": 226.2964, "EPHEMERIS_TYPE": 0, "CLASSIFICATION_TYPE": "U", "NORAD_CAT_ID": 33916, "ELEMENT_SET_NO": 999, "REV_AT_EPOCH": 83885, "BSTAR": 0.00067485867, "MEAN_MOTION_DOT": 8.15e-06, "MEAN_MOTION_DDOT": 0}, "tle": {"line1": "1 33916U 93036DV  25346.31085066  .00000815  00000+0  67486-3 0  9999", "line2": "2 33916  74.0528  41.2934 0325339 213.5255 226.2964 13.68613338838856"}}, "geometry": {"type": "Point", "coordinates": [31.635755431536055, -27.64884777528717]}}]}